start=new Date('2022-06-16T00:00:00.000Z').valueOf();
sats=[{"MEAN_MOTION":"15.06403906","MEAN_MOTION_DOT":"0.00000370","APOAPSIS":"548.182","MEAN_MOTION_DDOT":"0.0000000000000","MEAN_ANOMALY":"289.2713","COUNTRY_CODE":"US","RCS_SIZE":"LARGE","TLE_LINE1":"1 46331U 20062G   22166.87772163  .00000370  00000-0  43718-4 0  9992","TIME_SYSTEM":"UTC","TLE_LINE2":"2 46331  53.0554  14.5144 0001415  70.8429 289.2713 15.06403906 98903","SEMIMAJOR_AXIS":"6925.337","EPHEMERIS_TYPE":"0","ELEMENT_SET_NO":"999","GP_ID":"206235511","SITE":"AFETR","NORAD_CAT_ID":"46331","DECAY_DATE":null,"LAUNCH_DATE":"2020-09-03","BSTAR":"0.00004371800000","INCLINATION":"53.0554","MEAN_ELEMENT_THEORY":"SGP4","RA_OF_ASC_NODE":"14.5144","CLASSIFICATION_TYPE":"U","REF_FRAME":"TEME","ARG_OF_PERICENTER":"70.8429","OBJECT_NAME":"STARLINK-1719","CENTER_NAME":"EARTH","PERIAPSIS":"546.222","REV_AT_EPOCH":"9890","EPOCH":"2022-06-15T21:03:55.148832","FILE":"3496999","OBJECT_ID":"2020-062G","ECCENTRICITY":"0.00014150","OBJECT_TYPE":"PAYLOAD","PERIOD":"95.592"},{"RCS_SIZE":"LARGE","TLE_LINE1":"1 46332U 20062H   22166.82242957  .00000798  00000-0  72451-4 0  9991","MEAN_MOTION_DOT":"0.00000798","APOAPSIS":"548.249","MEAN_MOTION":"15.06405523","COUNTRY_CODE":"US","MEAN_ANOMALY":"302.9214","MEAN_MOTION_DDOT":"0.0000000000000","SITE":"AFETR","NORAD_CAT_ID":"46332","ELEMENT_SET_NO":"999","GP_ID":"206234259","SEMIMAJOR_AXIS":"6925.332","EPHEMERIS_TYPE":"0","TIME_SYSTEM":"UTC","TLE_LINE2":"2 46332  53.0557  14.7790 0001519  57.1922 302.9214 15.06405523 98891","ARG_OF_PERICENTER":"57.1922","REF_FRAME":"TEME","CENTER_NAME":"EARTH","OBJECT_NAME":"STARLINK-1721","RA_OF_ASC_NODE":"14.7790","CLASSIFICATION_TYPE":"U","INCLINATION":"53.0557","MEAN_ELEMENT_THEORY":"SGP4","DECAY_DATE":null,"LAUNCH_DATE":"2020-09-03","BSTAR":"0.00007245100000","PERIOD":"95.592","FILE":"3496999","OBJECT_ID":"2020-062H","EPOCH":"2022-06-15T19:44:17.914848","REV_AT_EPOCH":"9889","OBJECT_TYPE":"PAYLOAD","ECCENTRICITY":"0.00015190","PERIAPSIS":"546.145"},{"PERIAPSIS":"546.068","PERIOD":"95.592","OBJECT_ID":"2020-062J","FILE":"3496999","EPOCH":"2022-06-15T20:05:32.508384","REV_AT_EPOCH":"9889","OBJECT_TYPE":"PAYLOAD","ECCENTRICITY":"0.00016690","INCLINATION":"53.0548","MEAN_ELEMENT_THEORY":"SGP4","DECAY_DATE":null,"BSTAR":"0.00004729500000","LAUNCH_DATE":"2020-09-03","ARG_OF_PERICENTER":"64.9548","REF_FRAME":"TEME","CENTER_NAME":"EARTH","OBJECT_NAME":"STARLINK-1723","RA_OF_ASC_NODE":"14.7127","CLASSIFICATION_TYPE":"U","SEMIMAJOR_AXIS":"6925.359","EPHEMERIS_TYPE":"0","TIME_SYSTEM":"UTC","TLE_LINE2":"2 46333  53.0548  14.7127 0001669  64.9548 295.1614 15.06396667 98897","SITE":"AFETR","NORAD_CAT_ID":"46333","ELEMENT_SET_NO":"999","GP_ID":"206234509","RCS_SIZE":"LARGE","TLE_LINE1":"1 46333U 20062J   22166.83718181  .00000423  00000-0  47295-4 0  9993","APOAPSIS":"548.380","MEAN_MOTION_DOT":"0.00000423","MEAN_MOTION":"15.06396667","MEAN_ANOMALY":"295.1614","COUNTRY_CODE":"US","MEAN_MOTION_DDOT":"0.0000000000000"},{"RCS_SIZE":"LARGE","TLE_LINE1":"1 46334U 20062K   22166.83905897  .00002525  00000-0  18838-3 0  9991","MEAN_MOTION":"15.06399353","APOAPSIS":"548.488","MEAN_MOTION_DOT":"0.00002525","MEAN_MOTION_DDOT":"0.0000000000000","COUNTRY_CODE":"US","MEAN_ANOMALY":"305.5650","SEMIMAJOR_AXIS":"6925.351","EPHEMERIS_TYPE":"0","TLE_LINE2":"2 46334  53.0555 354.9657 0001838  54.5510 305.5650 15.06399353 99178","TIME_SYSTEM":"UTC","SITE":"AFETR","NORAD_CAT_ID":"46334","ELEMENT_SET_NO":"999","GP_ID":"206235760","INCLINATION":"53.0555","MEAN_ELEMENT_THEORY":"SGP4","DECAY_DATE":null,"BSTAR":"0.00018838000000","LAUNCH_DATE":"2020-09-03","REF_FRAME":"TEME","ARG_OF_PERICENTER":"54.5510","OBJECT_NAME":"STARLINK-1725","CENTER_NAME":"EARTH","RA_OF_ASC_NODE":"354.9657","CLASSIFICATION_TYPE":"U","PERIAPSIS":"545.943","PERIOD":"95.592","REV_AT_EPOCH":"9917","EPOCH":"2022-06-15T20:08:14.695008","OBJECT_ID":"2020-062K","FILE":"3496999","ECCENTRICITY":"0.00018380","OBJECT_TYPE":"PAYLOAD"},{"EPOCH":"2022-06-15T20:48:00.760608","REV_AT_EPOCH":"9890","FILE":"3496999","OBJECT_ID":"2020-062L","ECCENTRICITY":"0.00016930","OBJECT_TYPE":"PAYLOAD","PERIOD":"95.593","PERIAPSIS":"546.069","RA_OF_ASC_NODE":"14.5826","CLASSIFICATION_TYPE":"U","REF_FRAME":"TEME","ARG_OF_PERICENTER":"67.4300","OBJECT_NAME":"STARLINK-1727","CENTER_NAME":"EARTH","DECAY_DATE":null,"LAUNCH_DATE":"2020-09-03","BSTAR":"-0.00004781800000","INCLINATION":"53.0571","MEAN_ELEMENT_THEORY":"SGP4","ELEMENT_SET_NO":"999","GP_ID":"206236011","SITE":"AFETR","NORAD_CAT_ID":"46335","TIME_SYSTEM":"UTC","TLE_LINE2":"2 46335  53.0571  14.5826 0001693  67.4300 292.6868 15.06390911 98901","SEMIMAJOR_AXIS":"6925.376","EPHEMERIS_TYPE":"0","MEAN_MOTION":"15.06390911","MEAN_MOTION_DOT":"-0.00000994","APOAPSIS":"548.414","MEAN_MOTION_DDOT":"0.0000000000000","COUNTRY_CODE":"US","MEAN_ANOMALY":"292.6868","RCS_SIZE":"LARGE","TLE_LINE1":"1 46335U 20062L   22166.86667547 -.00000994  00000-0 -47818-4 0  9993"},{"CLASSIFICATION_TYPE":"U","RA_OF_ASC_NODE":"354.9079","OBJECT_NAME":"STARLINK-1738","CENTER_NAME":"EARTH","REF_FRAME":"TEME","ARG_OF_PERICENTER":"71.9457","LAUNCH_DATE":"2020-09-03","BSTAR":"-0.00003881400000","DECAY_DATE":null,"MEAN_ELEMENT_THEORY":"SGP4","INCLINATION":"53.0541","OBJECT_TYPE":"PAYLOAD","ECCENTRICITY":"0.00014320","EPOCH":"2022-06-15T18:59:11.269824","REV_AT_EPOCH":"9916","OBJECT_ID":"2020-062M","FILE":"3496999","PERIOD":"95.592","PERIAPSIS":"546.224","MEAN_MOTION_DDOT":"0.0000000000000","MEAN_ANOMALY":"288.1688","COUNTRY_CODE":"US","MEAN_MOTION":"15.06399273","APOAPSIS":"548.207","MEAN_MOTION_DOT":"-0.00000860","TLE_LINE1":"1 46336U 20062M   22166.79110266 -.00000860  00000-0 -38814-4 0  9995","RCS_SIZE":"LARGE","GP_ID":"206234759","ELEMENT_SET_NO":"999","NORAD_CAT_ID":"46336","SITE":"AFETR","TLE_LINE2":"2 46336  53.0541 354.9079 0001432  71.9457 288.1688 15.06399273 99163","TIME_SYSTEM":"UTC","EPHEMERIS_TYPE":"0","SEMIMAJOR_AXIS":"6925.351"},{"ELEMENT_SET_NO":"999","GP_ID":"206235009","NORAD_CAT_ID":"46337","SITE":"AFETR","TLE_LINE2":"2 46337  53.0558 354.8505 0001458  63.7952 296.3187 15.06385866 99171","TIME_SYSTEM":"UTC","SEMIMAJOR_AXIS":"6925.392","EPHEMERIS_TYPE":"0","MEAN_MOTION_DOT":"-0.00001777","APOAPSIS":"548.267","MEAN_MOTION":"15.06385866","MEAN_ANOMALY":"296.3187","COUNTRY_CODE":"US","MEAN_MOTION_DDOT":"0.0000000000000","RCS_SIZE":"LARGE","TLE_LINE1":"1 46337U 20062N   22166.80586185 -.00001777  00000-0 -10046-3 0  9999","FILE":"3496999","OBJECT_ID":"2020-062N","REV_AT_EPOCH":"9917","EPOCH":"2022-06-15T19:20:26.463840","OBJECT_TYPE":"PAYLOAD","ECCENTRICITY":"0.00014580","PERIOD":"95.593","PERIAPSIS":"546.247","RA_OF_ASC_NODE":"354.8505","CLASSIFICATION_TYPE":"U","ARG_OF_PERICENTER":"63.7952","REF_FRAME":"TEME","CENTER_NAME":"EARTH","OBJECT_NAME":"STARLINK-1750","DECAY_DATE":null,"BSTAR":"-0.00010046000000","LAUNCH_DATE":"2020-09-03","INCLINATION":"53.0558","MEAN_ELEMENT_THEORY":"SGP4"},{"PERIAPSIS":"546.150","EPOCH":"2022-06-15T20:32:04.575264","REV_AT_EPOCH":"9889","OBJECT_ID":"2020-062P","FILE":"3496999","OBJECT_TYPE":"PAYLOAD","ECCENTRICITY":"0.00015260","PERIOD":"95.592","DECAY_DATE":null,"BSTAR":"-0.00006091300000","LAUNCH_DATE":"2020-09-03","INCLINATION":"53.0564","MEAN_ELEMENT_THEORY":"SGP4","RA_OF_ASC_NODE":"14.6250","CLASSIFICATION_TYPE":"U","REF_FRAME":"TEME","ARG_OF_PERICENTER":"58.6061","OBJECT_NAME":"STARLINK-1752","CENTER_NAME":"EARTH","TIME_SYSTEM":"UTC","TLE_LINE2":"2 46338  53.0564  14.6250 0001526  58.6061 301.5078 15.06402152 98891","SEMIMAJOR_AXIS":"6925.342","EPHEMERIS_TYPE":"0","ELEMENT_SET_NO":"999","GP_ID":"206235261","NORAD_CAT_ID":"46338","SITE":"AFETR","MEAN_MOTION":"15.06402152","APOAPSIS":"548.264","MEAN_MOTION_DOT":"-0.00001189","MEAN_MOTION_DDOT":"0.0000000000000","MEAN_ANOMALY":"301.5078","COUNTRY_CODE":"US","RCS_SIZE":"LARGE","TLE_LINE1":"1 46338U 20062P   22166.85560851 -.00001189  00000-0 -60913-4 0  9993"},{"OBJECT_NAME":"STARLINK-1759","CENTER_NAME":"EARTH","REF_FRAME":"TEME","ARG_OF_PERICENTER":"54.0930","CLASSIFICATION_TYPE":"U","RA_OF_ASC_NODE":"14.7498","MEAN_ELEMENT_THEORY":"SGP4","INCLINATION":"53.0558","LAUNCH_DATE":"2020-09-03","BSTAR":"0.00011128000000","DECAY_DATE":null,"PERIOD":"95.592","ECCENTRICITY":"0.00016990","OBJECT_TYPE":"PAYLOAD","EPOCH":"2022-06-15T19:54:55.406880","REV_AT_EPOCH":"9888","FILE":"3496999","OBJECT_ID":"2020-062R","PERIAPSIS":"546.044","TLE_LINE1":"1 46340U 20062R   22166.82980795  .00001376  00000-0  11128-3 0  9995","RCS_SIZE":"LARGE","MEAN_MOTION_DDOT":"0.0000000000000","COUNTRY_CODE":"US","MEAN_ANOMALY":"306.0217","MEAN_MOTION":"15.06397711","APOAPSIS":"548.397","MEAN_MOTION_DOT":"0.00001376","SITE":"AFETR","NORAD_CAT_ID":"46340","GP_ID":"206235512","ELEMENT_SET_NO":"999","EPHEMERIS_TYPE":"0","SEMIMAJOR_AXIS":"6925.356","TIME_SYSTEM":"UTC","TLE_LINE2":"2 46340  53.0558  14.7498 0001699  54.0930 306.0217 15.06397711 98886"},{"NORAD_CAT_ID":"46341","SITE":"AFETR","ELEMENT_SET_NO":"999","GP_ID":"206234260","SEMIMAJOR_AXIS":"6925.374","EPHEMERIS_TYPE":"0","TIME_SYSTEM":"UTC","TLE_LINE2":"2 46341  53.0553 354.7135 0001736  65.7189 294.3981 15.06391853 99186","RCS_SIZE":"LARGE","TLE_LINE1":"1 46341U 20062S   22166.83534379  .00000014  00000-0  19826-4 0  9992","MEAN_MOTION":"15.06391853","APOAPSIS":"548.441","MEAN_MOTION_DOT":"0.00000014","MEAN_MOTION_DDOT":"0.0000000000000","MEAN_ANOMALY":"294.3981","COUNTRY_CODE":"US","PERIOD":"95.593","EPOCH":"2022-06-15T20:02:53.703456","REV_AT_EPOCH":"9918","OBJECT_ID":"2020-062S","FILE":"3496999","ECCENTRICITY":"0.00017360","OBJECT_TYPE":"PAYLOAD","PERIAPSIS":"546.036","REF_FRAME":"TEME","ARG_OF_PERICENTER":"65.7189","OBJECT_NAME":"STARLINK-1760","CENTER_NAME":"EARTH","RA_OF_ASC_NODE":"354.7135","CLASSIFICATION_TYPE":"U","INCLINATION":"53.0553","MEAN_ELEMENT_THEORY":"SGP4","DECAY_DATE":null,"LAUNCH_DATE":"2020-09-03","BSTAR":"0.00001982600000"}];
